     2.10           G: GLONASS NAV DATA                     RINEX VERSION / TYPE
teqc  2015Jun23                         20210503 02:25:48UTCPGM / RUN BY / DATE
Linux 2.4.21-27.ELsmp|Opteron|gcc -static|Linux x86_64|=+   COMMENT
  2021     4     9    8.847564458847D-09                    CORR TO SYSTEM TIME
                                                            END OF HEADER
14 21  4 10  9 45  0.0 6.298068910837D-05 0.000000000000D+00 3.420000000000D+04
    2.554135742188D+03 1.080274581909D-01 2.793967723846D-09 0.000000000000D+00
    2.445460888672D+04 9.302701950073D-01-9.313225746155D-10-7.000000000000D+00
    6.774844726562D+03-3.402839660645D+00-0.000000000000D+00 0.000000000000D+00
17 21  4 10  9 45  0.0 4.150262102485D-04 2.728484105319D-12 3.420000000000D+04
    1.138608886719D+04-1.806596755981D+00 3.725290298462D-09 0.000000000000D+00
    1.595536914062D+04-1.331598281860D+00 0.000000000000D+00 4.000000000000D+00
    1.634893066406D+04 2.556003570557D+00-1.862645149231D-09 0.000000000000D+00
15 21  4 10  9 45  0.0 1.044552773237D-04-0.000000000000D+00 3.522000000000D+04
    9.276727539062D+03-1.618289947510D-02 2.793967723846D-09 0.000000000000D+00
    1.245171826172D+04 2.770000457764D+00 0.000000000000D+00 0.000000000000D+00
    2.025305517578D+04-1.696519851685D+00-1.862645149231D-09 0.000000000000D+00
 3 21  4 10 10 15  0.0 3.396999090910D-05 0.000000000000D+00 3.600000000000D+04
   -4.373994628906D+03-2.212314605713D+00 0.000000000000D+00 0.000000000000D+00
    1.492561328125D+04 1.675275802612D+00-1.862645149231D-09 5.000000000000D+00
   -2.018652246094D+04 1.709232330322D+00 1.862645149231D-09 0.000000000000D+00
17 21  4 10 10 15  0.0 4.150317981839D-04 2.728484105319D-12 3.600000000000D+04
    7.511977050781D+03-2.473209381104D+00 1.862645149231D-09 0.000000000000D+00
    1.358277539062D+04-1.262074470520D+00-0.000000000000D+00 4.000000000000D+00
    2.025956738281D+04 1.760960578918D+00-1.862645149231D-09 0.000000000000D+00
 1 21  4 10 10 15  0.0 7.765740156174D-05 0.000000000000D+00 3.600000000000D+04
   -2.034703320312D+04 1.576054573059D+00-2.793967723846D-09 0.000000000000D+00
    6.898205078125D+03-1.032890319824D+00-1.862645149231D-09 1.000000000000D+00
    1.374512402344D+04 2.854034423828D+00-9.313225746155D-10 0.000000000000D+00
 2 21  4 10 10 15  0.0 4.742257297039D-04 9.094947017729D-13 3.600000000000D+04
   -1.815341210938D+04-6.555223464966D-01-1.862645149231D-09 0.000000000000D+00
    1.665649902344D+04 6.672668457031D-01-2.793967723846D-09-4.000000000000D+00
   -6.678161621094D+03 3.417131423950D+00 0.000000000000D+00 0.000000000000D+00
13 21  4 10 10 15  0.0-5.322694778442D-05-0.000000000000D+00 3.600000000000D+04
   -5.795517578125D+03-1.395425796509D-01 0.000000000000D+00 0.000000000000D+00
    1.866823632812D+04-2.240714073181D+00-1.862645149231D-09-2.000000000000D+00
   -1.640955273438D+04-2.502665519714D+00 1.862645149231D-09 0.000000000000D+00
14 21  4 10 10 15  0.0 6.298068910837D-05 0.000000000000D+00 3.600000000000D+04
    2.819887207031D+03 1.470394134521D-01 2.793967723846D-09 0.000000000000D+00
    2.534138818359D+04 4.829120635986D-02-1.862645149231D-09-7.000000000000D+00
    4.668295898438D+02-3.560524940491D+00 0.000000000000D+00 0.000000000000D+00
15 21  4 10 10 15  0.0 1.044552773237D-04-0.000000000000D+00 3.600000000000D+04
    9.582319335938D+03 3.302154541016D-01 2.793967723846D-09 0.000000000000D+00
    1.698674902344D+04 2.228240013123D+00-0.000000000000D+00 0.000000000000D+00
    1.645690136719D+04-2.494119644165D+00-1.862645149231D-09 0.000000000000D+00
 3 21  4 10 10 45  0.0 3.397092223167D-05 0.000000000000D+00 3.780000000000D+04
   -7.789101074219D+03-1.565547943115D+00-9.313225746155D-10 0.000000000000D+00
    1.793085693359D+04 1.618731498718D+00-1.862645149231D-09 5.000000000000D+00
   -1.636754980469D+04 2.506265640259D+00 1.862645149231D-09 0.000000000000D+00
17 21  4 10 10 45  0.0 4.150383174419D-04 2.728484105319D-12 3.780000000000D+04
    2.601735351562D+03-2.942110061646D+00 0.000000000000D+00 0.000000000000D+00
    1.154832421875D+04-9.664659500122D-01-9.313225746155D-10 4.000000000000D+00
    2.260648291016D+04 8.297643661499D-01-1.862645149231D-09 0.000000000000D+00
 2 21  4 10 10 45  0.0 4.742294549942D-04 1.818989403546D-12 3.780000000000D+04
   -1.865433642578D+04 7.955169677734D-02-2.793967723846D-09 0.000000000000D+00
    1.743931738281D+04 1.660642623901D-01-1.862645149231D-09-4.000000000000D+00
   -3.490380859375D+02 3.569649696350D+00-0.000000000000D+00 0.000000000000D+00
13 21  4 10 10 45  0.0-5.322787910700D-05-0.000000000000D+00 3.780000000000D+04
   -6.438045410156D+03-5.909852981567D-01-9.313225746155D-10 0.000000000000D+00
    1.418038330078D+04-2.700757980347D+00-9.313225746155D-10-2.000000000000D+00
   -2.022300439453D+04-1.707097053528D+00 1.862645149231D-09 0.000000000000D+00
14 21  4 10 10 45  0.0 6.298162043095D-05 0.000000000000D+00 3.780000000000D+04
    2.938915039062D+03-5.337429046631D-02 9.313225746155D-10 0.000000000000D+00
    2.463942675781D+04-8.155279159546D-01-1.862645149231D-09-7.000000000000D+00
   -5.877293945312D+03-3.442681312561D+00 9.313225746155D-10 0.000000000000D+00
15 21  4 10 10 45  0.0 1.044552773237D-04-0.000000000000D+00 3.780000000000D+04
    1.035093017578D+04 4.868288040161D-01 2.793967723846D-09 0.000000000000D+00
    2.035185156250D+04 1.484943389893D+00-1.862645149231D-09 0.000000000000D+00
    1.138993115234D+04-3.099368095398D+00-9.313225746155D-10 0.000000000000D+00
 3 21  4 10 11 15  0.0 3.397185355425D-05 0.000000000000D+00 3.960000000000D+04
   -9.983822753906D+03-8.752803802490D-01-1.862645149231D-09 0.000000000000D+00
    2.058793603516D+04 1.288553237915D+00-1.862645149231D-09 5.000000000000D+00
   -1.128132617188D+04 3.108220100403D+00 9.313225746155D-10 0.000000000000D+00
14 21  4 10 11 15  0.0 6.298255175352D-05 0.000000000000D+00 3.960000000000D+04
    2.502302246094D+03-4.615135192871D-01 0.000000000000D+00 0.000000000000D+00
    2.248377441406D+04-1.549598693848D+00-1.862645149231D-09-7.000000000000D+00
   -1.176652148438D+04-3.058365821838D+00 9.313225746155D-10 0.000000000000D+00
 2 21  4 10 11 15  0.0 4.742331802845D-04 1.818989403546D-12 3.960000000000D+04
   -1.796496337891D+04 6.524267196655D-01-3.725290298462D-09 0.000000000000D+00
    1.714464453125D+04-5.168190002441D-01-1.862645149231D-09-4.000000000000D+00
    6.007094238281D+03 3.447072029114D+00-0.000000000000D+00 0.000000000000D+00
13 21  4 10 11 15  0.0-5.322881042957D-05-0.000000000000D+00 3.960000000000D+04
   -7.951893554688D+03-1.090103149414D+00-1.862645149231D-09 0.000000000000D+00
    9.119809570312D+03-2.871808052063D+00-9.313225746155D-10-2.000000000000D+00
   -2.247603613281D+04-7.800893783569D-01 1.862645149231D-09 0.000000000000D+00
15 21  4 10 11 15  0.0 1.044543460011D-04-0.000000000000D+00 3.960000000000D+04
    1.119053906250D+04 4.043016433716D-01 1.862645149231D-09 0.000000000000D+00
    2.227222216797D+04 6.415672302246D-01-1.862645149231D-09 0.000000000000D+00
    5.443083984375D+03-3.465387344360D+00-0.000000000000D+00 0.000000000000D+00
 4 21  4 10 11 15  0.0 8.178036659956D-05 9.094947017729D-13 4.002000000000D+04
    3.357109375000D+03-1.893333435059D+00 0.000000000000D+00 0.000000000000D+00
    1.222412402344D+04 2.373698234558D+00-9.313225746155D-10 6.000000000000D+00
   -2.210400878906D+04 1.023138999939D+00 1.862645149231D-09 0.000000000000D+00
 3 21  4 10 11 45  0.0 3.397371619940D-05 9.094947017729D-13 4.140000000000D+04
   -1.098112548828D+04-2.528209686279D-01-2.793967723846D-09 0.000000000000D+00
    2.241878222656D+04 7.083654403687D-01-1.862645149231D-09 5.000000000000D+00
   -5.322946777344D+03 3.469161987305D+00 0.000000000000D+00 0.000000000000D+00
14 21  4 10 11 45  0.0 6.298255175352D-05 0.000000000000D+00 4.140000000000D+04
    1.194841308594D+03-1.006428718567D+00-0.000000000000D+00 0.000000000000D+00
    1.919354199219D+04-2.063767433167D+00-1.862645149231D-09-7.000000000000D+00
   -1.674501855469D+04-2.437347412109D+00 1.862645149231D-09 0.000000000000D+00
 2 21  4 10 11 45  0.0 4.742369055748D-04 1.818989403546D-12 4.140000000000D+04
   -1.644573095703D+04 9.931478500366D-01-3.725290298462D-09 0.000000000000D+00
    1.552519775391D+04-1.288369178772D+00-9.313225746155D-10-4.000000000000D+00
    1.190099414062D+04 3.059459686279D+00-9.313225746155D-10 0.000000000000D+00
 4 21  4 10 11 45  0.0 8.178316056728D-05 1.818989403546D-12 4.140000000000D+04
    4.409892578125D+02-1.332972526550D+00-9.313225746155D-10 0.000000000000D+00
    1.648664990234D+04 2.313842773438D+00-1.862645149231D-09 6.000000000000D+00
   -1.942925976562D+04 1.929389953613D+00 1.862645149231D-09 0.000000000000D+00
15 21  4 10 11 45  0.0 1.044543460011D-04-0.000000000000D+00 4.140000000000D+04
    1.165824755859D+04 7.634449005127D-02 9.313225746155D-10 0.000000000000D+00
    2.267052832031D+04-1.869220733643D-01-2.793967723846D-09 0.000000000000D+00
   -9.244091796875D+02-3.563678741455D+00 0.000000000000D+00 0.000000000000D+00
 3 21  4 10 12 15  0.0 3.397557884455D-05 9.094947017729D-13 4.320000000000D+04
   -1.099237939453D+04 2.067117691040D-01-3.725290298462D-09 0.000000000000D+00
    2.302686572266D+04-5.605411529541D-02-9.313225746155D-10 5.000000000000D+00
    1.046381347656D+03 3.562008857727D+00-0.000000000000D+00 0.000000000000D+00
14 21  4 10 12 15  0.0 6.298348307610D-05 0.000000000000D+00 4.320000000000D+04
   -1.144136718750D+03-1.589799880981D+00-1.862645149231D-09 0.000000000000D+00
    1.521969775391D+04-2.303627967834D+00-9.313225746155D-10-7.000000000000D+00
   -2.042754248047D+04-1.627771377563D+00 1.862645149231D-09 0.000000000000D+00
 2 21  4 10 12 15  0.0 4.742406308651D-04 1.818989403546D-12 4.320000000000D+04
   -1.454716259766D+04 1.072848320007D+00-2.793967723846D-09 0.000000000000D+00
    1.252002832031D+04-2.037388801575D+00 0.000000000000D+00-4.000000000000D+00
    1.687984667969D+04 2.436940193176D+00-1.862645149231D-09 0.000000000000D+00
